PLEIADES 1A             
1 38012U 11076F   26190.84723441  .00000074  00000+0  25707-4 0  9995
2 38012  98.1967 265.6451 0001734  82.3845  54.2142 14.58544830775290
PLEIADES 1B             
1 39019U 12068A   26190.85515198  .00000005  00000+0  10799-4 0  9993
2 39019  98.1938 265.5943 0001634  81.2832 278.8552 14.58532191724159
