{"fetched_at":"2026-07-10T07:59:14.706Z","source":"https://celestrak.org/NORAD/elements/gp.php?NAME=PLEIADES&FORMAT=JSON","constellation":"pleiades","records":[{"OBJECT_NAME":"PLEIADES 1A","OBJECT_ID":"2011-076F","EPOCH":"2026-07-09T20:20:01.053024","CLASSIFICATION_TYPE":"U","MEAN_MOTION":14.5854483,"ECCENTRICITY":0.0001734,"INCLINATION":98.1967,"RA_OF_ASC_NODE":265.6451,"ARG_OF_PERICENTER":82.3845,"MEAN_ANOMALY":54.2142,"EPHEMERIS_TYPE":0,"NORAD_CAT_ID":38012,"ELEMENT_SET_NO":999,"REV_AT_EPOCH":77529,"BSTAR":0.000025707,"MEAN_MOTION_DOT":7.4e-7,"MEAN_MOTION_DDOT":0},{"OBJECT_NAME":"PLEIADES 1B","OBJECT_ID":"2012-068A","EPOCH":"2026-07-09T20:31:25.131072","CLASSIFICATION_TYPE":"U","MEAN_MOTION":14.58532191,"ECCENTRICITY":0.0001634,"INCLINATION":98.1938,"RA_OF_ASC_NODE":265.5943,"ARG_OF_PERICENTER":81.2832,"MEAN_ANOMALY":278.8552,"EPHEMERIS_TYPE":0,"NORAD_CAT_ID":39019,"ELEMENT_SET_NO":999,"REV_AT_EPOCH":72415,"BSTAR":0.000010799,"MEAN_MOTION_DOT":5e-8,"MEAN_MOTION_DDOT":0}]}
